STARLINK-32173          
1 60586U 24150D   26176.81305323 -.00000036  00000+0  10066-4 0  9990
2 60586  53.1586 162.8127 0001254  92.3392 267.7754 15.34387771104629
STARLINK-31911          
1 60587U 24150E   26176.25628010  .00000226  00000+0  17818-4 0  9992
2 60587  53.1590 165.7398 0001142  87.5115 272.6018 15.34398501104454
STARLINK-31994          
1 60588U 24150F   26176.67647095  .00000524  00000+0  26645-4 0  9992
2 60588  53.1593 163.3830 0001347  94.3813 265.7343 15.34389024104523
STARLINK-32169          
1 60589U 24150G   26176.24591817  .00000125  00000+0  16352-4 0  9997
2 60589  53.1597 167.8030 0001283  81.6842 278.4304 15.30193213104504
STARLINK-32209          
1 60590U 24150H   26176.23314114 -.00000979  00000+0 -17852-4 0  9996
2 60590  53.1596 165.5953 0001235  81.0427 279.0715 15.34393987104534
STARLINK-32170          
1 60591U 24150J   26176.24064148 -.00000566  00000+0 -70074-5 0  9995
2 60591  53.1606 167.7682 0000821  91.3334 268.7761 15.30203016104424
STARLINK-31497          
1 60592U 24150K   26176.24786500  .00000281  00000+0  19465-4 0  9997
2 60592  53.1598 165.6873 0001224  88.5485 271.5658 15.34395380104536
STARLINK-32161          
1 60593U 24150L   26176.24576170  .00001478  00000+0  54898-4 0  9996
2 60593  53.1594 165.6719 0001110  95.4948 264.6181 15.34387887104455
STARLINK-32210          
1 60594U 24150M   26176.27101258  .00000561  00000+0  27748-4 0  9997
2 60594  53.1592 165.8268 0001233  96.0406 264.0737 15.34393956104531
STARLINK-32202          
1 60595U 24150N   26176.66572263  .00005822  00000+0  19907-3 0  9991
2 60595  53.1571 165.4438 0001375  28.0286 332.0789 15.31724240104570
STARLINK-31930          
1 60596U 24150P   26176.26469902  .00000666  00000+0  30834-4 0  9997
2 60596  53.1601 165.7900 0000689  78.7938 281.3142 15.34397518104458
STARLINK-32162          
1 60597U 24150Q   26176.24380722 -.00000287  00000+0  24468-5 0  9995
2 60597  53.1594 167.7859 0001230  84.3047 275.8094 15.30189405104502
STARLINK-32208          
1 60598U 24150R   26176.24697065  .00000632  00000+0  33451-4 0  9991
2 60598  53.1591 167.8082 0001018  75.5589 284.5524 15.30194347104502
STARLINK-32165          
1 60599U 24150S   26176.23747369 -.00000072  00000+0  97065-5 0  9995
2 60599  53.1596 167.7470 0001214  83.9679 276.1460 15.30190923104501
STARLINK-31923          
1 60600U 24150T   26176.29224105 -.00002322  00000+0 -66347-4 0  9991
2 60600  53.1588 167.3751 0001196  88.5571 271.5567 15.30177792104511
STARLINK-31988          
1 60601U 24150U   26176.26259807  .00000265  00000+0  18993-4 0  9992
2 60601  53.1603 165.7799 0001425 108.5737 251.5420 15.34404993104455
STARLINK-31983          
1 60602U 24150V   26176.23944963  .00000093  00000+0  13887-4 0  9990
2 60602  53.1598 165.6332 0001301  87.6813 272.4338 15.34394693104451
STARLINK-31874          
1 60603U 24150W   26176.25417808  .00000179  00000+0  16442-4 0  9991
2 60603  53.1598 165.7252 0001161  88.6040 271.5095 15.34399896104530
STARLINK-32039          
1 60604U 24150X   26176.26965881  .00001051  00000+0  47612-4 0  9995
2 60604  53.1596 170.0782 0001239  84.9492 275.1650 15.30203112104473
STARLINK-11247 [DTC]    
1 60720U 24152A   26176.75489426 -.00002279  00000+0 -13954-4 0  9993
2 60720  53.1602 303.8505 0000797  73.3458 286.7647 15.69719904105806
STARLINK-11259 [DTC]    
1 60721U 24152B   26176.74999867 -.00001250  00000+0 -54645-5 0  9999
2 60721  53.1578 303.8175 0001224  79.2264 280.8892 15.69697098105804
STARLINK-11188 [DTC]    
1 60722U 24152C   26176.74508270 -.00000087  00000+0  41356-5 0  9995
2 60722  53.1602 303.7862 0000808  84.1388 275.9722 15.69712961105921
STARLINK-11272 [DTC]    
1 60723U 24152D   26176.73527458  .00000365  00000+0  78727-5 0  9994
2 60723  53.1592 303.7193 0000941  91.6918 268.4208 15.69708849105800
STARLINK-11261 [DTC]    
1 60724U 24152E   26176.74019630 -.00002658  00000+0 -17095-4 0  9993
2 60724  53.1596 303.7519 0001192  97.8825 262.2328 15.69696588105802
STARLINK-11263 [DTC]    
1 60725U 24152F   26176.73037161  .00006945  00000+0  62212-4 0  9994
2 60725  53.1605 303.6880 0000958  87.2139 272.8988 15.69677516105803
STARLINK-11235 [DTC]    
1 60726U 24152G   26176.59812367 -.00000534  00000+0  44303-6 0  9990
2 60726  53.1551 304.2822 0000417  97.9681 262.1384 15.69706901105912
STARLINK-11080 [DTC]    
1 60727U 24152H   26176.59321508  .00001256  00000+0  15214-4 0  9991
2 60727  53.1581 304.2488 0000605  20.1798 339.9244 15.69715090105917
STARLINK-11249 [DTC]    
1 60728U 24152J   26176.77932543 -.00001048  00000+0 -37856-5 0  9997
2 60728  53.1570 303.2733 0001687  97.8360 262.2850 15.69701430105818
STARLINK-11146 [DTC]    
1 60729U 24152K   26176.64707672 -.00001007  00000+0 -34602-5 0  9998
2 60729  53.1591 303.8558 0000984  48.8635 311.2467 15.69709395105922
STARLINK-11255 [DTC]    
1 60730U 24152L   26176.64217362 -.00001227  00000+0 -52777-5 0  9999
2 60730  53.1599 303.8363 0000913  87.5551 272.5571 15.69707169105804
