OBJECT_NAME,OBJECT_ID,EPOCH,MEAN_MOTION,ECCENTRICITY,INCLINATION,RA_OF_ASC_NODE,ARG_OF_PERICENTER,MEAN_ANOMALY,EPHEMERIS_TYPE,CLASSIFICATION_TYPE,NORAD_CAT_ID,ELEMENT_SET_NO,REV_AT_EPOCH,BSTAR,MEAN_MOTION_DOT,MEAN_MOTION_DDOT
STARLINK-32173,2024-150D,2026-06-25T19:30:47.799072,15.34387771,.0001254,53.1586,162.8127,92.3392,267.7754,0,U,60586,999,10462,.10066E-4,-.36E-6,0
STARLINK-31911,2024-150E,2026-06-25T06:09:02.600640,15.34398501,.0001142,53.1590,165.7398,87.5115,272.6018,0,U,60587,999,10445,.17818E-4,.226E-5,0
STARLINK-31994,2024-150F,2026-06-25T16:14:07.090080,15.34389024,.0001347,53.1593,163.3830,94.3813,265.7343,0,U,60588,999,10452,.26645E-4,.524E-5,0
STARLINK-32169,2024-150G,2026-06-25T05:54:07.329888,15.30193213,.0001283,53.1597,167.8030,81.6842,278.4304,0,U,60589,999,10450,.16352E-4,.125E-5,0
STARLINK-32209,2024-150H,2026-06-25T05:35:43.394496,15.34393987,.00012351,53.1596,165.5953,81.0427,279.0715,0,U,60590,999,10453,-.17852293E-4,-.979E-5,0
STARLINK-32170,2024-150J,2026-06-25T05:46:31.423872,15.30203016,.0000821,53.1606,167.7682,91.3334,268.7761,0,U,60591,999,10442,-.70074E-5,-.566E-5,0
STARLINK-31497,2024-150K,2026-06-25T05:56:55.536000,15.34395380,.0001224,53.1598,165.6873,88.5485,271.5658,0,U,60592,999,10453,.19465E-4,.281E-5,0
STARLINK-32161,2024-150L,2026-06-25T05:53:53.810880,15.34387887,.000111,53.1594,165.6719,95.4948,264.6181,0,U,60593,999,10445,.54898E-4,.1478E-4,0
STARLINK-32210,2024-150M,2026-06-25T06:30:15.486912,15.34393956,.0001233,53.1592,165.8268,96.0406,264.0737,0,U,60594,999,10453,.27748E-4,.561E-5,0
STARLINK-32202,2024-150N,2026-06-25T15:58:38.435232,15.31724240,.0001375,53.1571,165.4438,28.0286,332.0789,0,U,60595,999,10457,.19907E-3,.5822E-4,0
STARLINK-31930,2024-150P,2026-06-25T06:21:09.995328,15.34397518,.0000689,53.1601,165.7900,78.7938,281.3142,0,U,60596,999,10445,.30834E-4,.666E-5,0
STARLINK-32162,2024-150Q,2026-06-25T05:51:04.943808,15.30189405,.000123,53.1594,167.7859,84.3047,275.8094,0,U,60597,999,10450,.24468E-5,-.287E-5,0
STARLINK-32208,2024-150R,2026-06-25T05:55:38.264160,15.30194347,.0001018,53.1591,167.8082,75.5589,284.5524,0,U,60598,999,10450,.33451E-4,.632E-5,0
STARLINK-32165,2024-150S,2026-06-25T05:41:57.726816,15.30190923,.0001214,53.1596,167.7470,83.9679,276.1460,0,U,60599,999,10450,.97065E-5,-.72E-6,0
STARLINK-31923,2024-150T,2026-06-25T07:00:49.626720,15.30177792,.0001196,53.1588,167.3751,88.5571,271.5567,0,U,60600,999,10451,-.66347E-4,-.2322E-4,0
STARLINK-31988,2024-150U,2026-06-25T06:18:08.473248,15.34404993,.0001425,53.1603,165.7799,108.5737,251.5420,0,U,60601,999,10445,.18993E-4,.265E-5,0
STARLINK-31983,2024-150V,2026-06-25T05:44:48.448032,15.34394693,.0001301,53.1598,165.6332,87.6813,272.4338,0,U,60602,999,10445,.13887E-4,.93E-6,0
STARLINK-31874,2024-150W,2026-06-25T06:06:00.986112,15.34399896,.0001161,53.1598,165.7252,88.6040,271.5095,0,U,60603,999,10453,.16442E-4,.179E-5,0
STARLINK-32039,2024-150X,2026-06-25T06:28:18.521184,15.30203112,.0001239,53.1596,170.0782,84.9492,275.1650,0,U,60604,999,10447,.47612E-4,.1051E-4,0
STARLINK-11247 [DTC],2024-152A,2026-06-25T18:07:02.864064,15.69719904,.0000797,53.1602,303.8505,73.3458,286.7647,0,U,60720,999,10580,-.13954E-4,-.2279E-4,0
STARLINK-11259 [DTC],2024-152B,2026-06-25T17:59:59.885088,15.69697098,.0001224,53.1578,303.8175,79.2264,280.8892,0,U,60721,999,10580,-.54645E-5,-.125E-4,0
STARLINK-11188 [DTC],2024-152C,2026-06-25T17:52:55.145280,15.69712961,.0000808,53.1602,303.7862,84.1388,275.9722,0,U,60722,999,10592,.41356E-5,-.87E-6,0
STARLINK-11272 [DTC],2024-152D,2026-06-25T17:38:47.723712,15.69708849,.0000941,53.1592,303.7193,91.6918,268.4208,0,U,60723,999,10580,.78727E-5,.365E-5,0
STARLINK-11261 [DTC],2024-152E,2026-06-25T17:45:52.960320,15.69696588,.0001192,53.1596,303.7519,97.8825,262.2328,0,U,60724,999,10580,-.17095E-4,-.2658E-4,0
STARLINK-11263 [DTC],2024-152F,2026-06-25T17:31:44.107104,15.69677516,.0000958,53.1605,303.6880,87.2139,272.8988,0,U,60725,999,10580,.62212E-4,.6945E-4,0
STARLINK-11235 [DTC],2024-152G,2026-06-25T14:21:17.885088,15.69706901,.0000417,53.1551,304.2822,97.9681,262.1384,0,U,60726,999,10591,.44303E-6,-.534E-5,0
STARLINK-11080 [DTC],2024-152H,2026-06-25T14:14:13.782912,15.69715090,.0000605,53.1581,304.2488,20.1798,339.9244,0,U,60727,999,10591,.15214E-4,.1256E-4,0
STARLINK-11249 [DTC],2024-152J,2026-06-25T18:42:13.717152,15.69701430,.0001687,53.1570,303.2733,97.8360,262.2850,0,U,60728,999,10581,-.37856E-5,-.1048E-4,0
STARLINK-11146 [DTC],2024-152K,2026-06-25T15:31:47.428608,15.69709395,.0000984,53.1591,303.8558,48.8635,311.2467,0,U,60729,999,10592,-.34602E-5,-.1007E-4,0
STARLINK-11255 [DTC],2024-152L,2026-06-25T15:24:43.800768,15.69707169,.0000913,53.1599,303.8363,87.5551,272.5571,0,U,60730,999,10580,-.52777E-5,-.1227E-4,0
